STARLINK-2022           
1 47643U 21012Z   24115.51678095 -.00007732  00000+0 -50103-3 0  9996
2 47643  53.0529 242.9882 0001191  55.7030 304.4072 15.06377345176620
